OBJECT_NAME,OBJECT_ID,EPOCH,MEAN_MOTION,ECCENTRICITY,INCLINATION,RA_OF_ASC_NODE,ARG_OF_PERICENTER,MEAN_ANOMALY,EPHEMERIS_TYPE,CLASSIFICATION_TYPE,NORAD_CAT_ID,ELEMENT_SET_NO,REV_AT_EPOCH,BSTAR,MEAN_MOTION_DOT,MEAN_MOTION_DDOT
DTC TEST OBJECT A,2026-128A,2026-06-12T20:43:27.247584,15.55632476,.0008146,54.9940,325.0013,272.2012,87.8091,0,U,69472,999,55,.42192E-3,.29091E-3,0
DTC TEST OBJECT B,2026-128B,2026-06-11T16:57:46.267200,15.55972338,.0008173,55.0027,330.3416,268.8601,91.1498,0,U,69473,999,36,.4046219E-3,.28232E-3,0
2026-131A,2026-131A,2026-06-12T03:35:06.959040,14.94204437,.0006515,97.6783,226.9296,253.7332,106.3171,0,U,69502,999,2,.30315E-4,.269E-5,0
2026-131B,2026-131B,2026-06-12T03:34:17.056992,14.99683836,.0011174,97.7063,226.9081,265.7546,94.2400,0,U,69503,999,2,-.259E-4,-.38E-5,0
2026-131C,2026-131C,2026-06-12T03:34:13.358208,15.00135133,.0013838,97.6894,226.8864,298.9438,61.0397,0,U,69504,999,2,-.29353E-4,-.427E-5,0
2026-131D,2026-131D,2026-06-12T03:34:10.870752,14.96946339,.00157,97.6774,226.8712,41.7086,318.5330,0,U,69505,999,2,.17819E-4,.147E-5,0
2026-131E,2026-131E,2026-06-12T03:34:47.366976,14.93535946,.0000857,97.6733,226.9333,356.5117,3.6097,0,U,69506,999,2,.32813E-4,.29E-5,0
