{"updated_at":"2026-06-13T08:20:15.482518Z","count":200,"data":[{"NORAD_CAT_ID":"69502","OBJECT_NAME":"OBJECT A","OBJECT_ID":"2026-132A","EPOCH":"2026-06-12T03:35:06.959040","TLE_LINE1":"1 69502U 26132A   26163.14938610  .00000269  00000-0  30315-4 0  9999","TLE_LINE2":"2 69502  97.6783 226.9296 0006515 253.7332 106.3171 14.94204437    21"},{"NORAD_CAT_ID":"69503","OBJECT_NAME":"OBJECT B","OBJECT_ID":"2026-132B","EPOCH":"2026-06-12T03:34:17.056992","TLE_LINE1":"1 69503U 26132B   26163.14880853 -.00000380  00000-0 -25900-4 0  9995","TLE_LINE2":"2 69503  97.7063 226.9081 0011174 265.7546  94.2400 14.99683836    22"},{"NORAD_CAT_ID":"69504","OBJECT_NAME":"OBJECT C","OBJECT_ID":"2026-132C","EPOCH":"2026-06-12T03:34:13.358208","TLE_LINE1":"1 69504U 26132C   26163.14876572 -.00000427  00000-0 -29353-4 0  9997","TLE_LINE2":"2 69504  97.6894 226.8864 0013838 298.9438  61.0397 15.00135133    21"},{"NORAD_CAT_ID":"69505","OBJECT_NAME":"OBJECT D","OBJECT_ID":"2026-132D","EPOCH":"2026-06-12T03:34:10.870752","TLE_LINE1":"1 69505U 26132D   26163.14873693  .00000147  00000-0  17819-4 0  9990","TLE_LINE2":"2 69505  97.6774 226.8712 0015700  41.7086 318.5330 14.96946339    23"},{"NORAD_CAT_ID":"69506","OBJECT_NAME":"OBJECT E","OBJECT_ID":"2026-132E","EPOCH":"2026-06-12T03:34:47.366976","TLE_LINE1":"1 69506U 26132E   26163.14915934  .00000290  00000-0  32813-4 0  9996","TLE_LINE2":"2 69506  97.6733 226.9333 0000857 356.5117   3.6097 14.93535946    25"},{"NORAD_CAT_ID":"69472","OBJECT_NAME":"OBJECT A","OBJECT_ID":"2026-128A","EPOCH":"2026-06-12T20:43:27.247584","TLE_LINE1":"1 69472U 26128A   26163.86350981  .00029091  00000-0  42192-3 0  9997","TLE_LINE2":"2 69472  54.9940 325.0013 0008146 272.2012  87.8091 15.55632476   557"},{"NORAD_CAT_ID":"69473","OBJECT_NAME":"OBJECT B","OBJECT_ID":"2026-128B","EPOCH":"2026-06-11T16:57:46.267200","TLE_LINE1":"1 69473U 26128B   26162.70678550  .00028232  00000-0  40462-3 0  9999","TLE_LINE2":"2 69473  55.0027 330.3416 0008173 268.8601  91.1498 15.55972338   369"}]}